ORBCOMM FM103           
1 40091U 14040F   25253.42113459  .00000506  00000+0  14483-3 0  9992
2 40091  47.0068 335.2439 0002426 291.6317  68.4310 14.58293135576543
ORBCOMM FM114           
1 41179U 15081A   25253.37175009  .00000546  00000+0  15338-3 0  9993
2 41179  47.0017 244.4782 0002194 350.8766   9.2079 14.58328446516908
ORBCOMM FM119           
1 41180U 15081B   25253.43222928  .00000519  00000+0  14766-3 0  9999
2 41180  47.0001 153.5280 0000664  49.9896 310.1048 14.58264651518163
ORBCOMM FM105           
1 41181U 15081C   25253.25482872  .00000273  00000+0  12157-3 0  9995
2 41181  47.0009 167.5925 0002267 327.9302  32.1440 14.45284091513051
ORBCOMM FM110           
1 41182U 15081D   25253.36396992  .00000625  00000+0  17014-3 0  9993
2 41182  47.0008 244.0522 0003121 248.0755 111.9799 14.58338298516778
ORBCOMM FM118           
1 41183U 15081E   25253.39617677  .00000387  00000+0  11941-3 0  9991
2 41183  47.0029 244.1543 0002862 207.5274 152.5460 14.58318622516880
ORBCOMM FM112           
1 41184U 15081F   25253.12870079  .00000932  00000+0  23561-3 0  9997
2 41184  46.9986 154.0389 0001651 356.7242   3.3633 14.58377056518068
ORBCOMM FM113           
1 41185U 15081G   25253.24263496  .00000835  00000+0  21498-3 0  9999
2 41185  47.0001 153.8386 0001290   8.6907 351.4000 14.58371920518062
